[{"COMMENT":"GENERATED VIA SPACETRACK.ORG API","ORIGINATOR":"18 SPCS","NORAD_CAT_ID":"43476","OBJECT_NAME":"GRACE-FO 1","OBJECT_TYPE":"PAYLOAD","CLASSIFICATION_TYPE":"U","INTLDES":"18047A","EPOCH":"2023-03-20 17:54:23","EPOCH_MICROSECONDS":"984352","MEAN_MOTION":"15.25517772","ECCENTRICITY":"0.0015399","INCLINATION":"88.9967","RA_OF_ASC_NODE":"1.1317","ARG_OF_PERICENTER":"27.7326","MEAN_ANOMALY":"332.474","EPHEMERIS_TYPE":"0","ELEMENT_SET_NO":"999","REV_AT_EPOCH":"26851","BSTAR":"0.00018443","MEAN_MOTION_DOT":"0.00004714","MEAN_MOTION_DDOT":"0","FILE":"3866115","TLE_LINE0":"0 GRACE-FO 1","TLE_LINE1":"1 43476U 18047A   23079.74611093  .00004714  00000-0  18443-3 0  9995","TLE_LINE2":"2 43476  88.9967   1.1317 0015399  27.7326 332.4740 15.25517772268517","OBJECT_ID":"2018-047A","OBJECT_NUMBER":"43476","SEMIMAJOR_AXIS":"6867.368","PERIOD":"94.394","APOGEE":"499.808","PERIGEE":"478.658","DECAYED":"0"},{"COMMENT":"GENERATED VIA SPACETRACK.ORG API","ORIGINATOR":"18 SPCS","NORAD_CAT_ID":"43476","OBJECT_NAME":"GRACE-FO 1","OBJECT_TYPE":"PAYLOAD","CLASSIFICATION_TYPE":"U","INTLDES":"18047A","EPOCH":"2023-03-21 04:55:37","EPOCH_MICROSECONDS":"138944","MEAN_MOTION":"15.25522201","ECCENTRICITY":"0.0015319","INCLINATION":"88.9968","RA_OF_ASC_NODE":"1.0699","ARG_OF_PERICENTER":"26.1478","MEAN_ANOMALY":"334.054","EPHEMERIS_TYPE":"0","ELEMENT_SET_NO":"999","REV_AT_EPOCH":"26858","BSTAR":"0.0001938","MEAN_MOTION_DOT":"0.00004953","MEAN_MOTION_DDOT":"0","FILE":"3866192","TLE_LINE0":"0 GRACE-FO 1","TLE_LINE1":"1 43476U 18047A   23080.20529096  .00004953  00000-0  19380-3 0  9995","TLE_LINE2":"2 43476  88.9968   1.0699 0015319  26.1478 334.0540 15.25522201268589","OBJECT_ID":"2018-047A","OBJECT_NUMBER":"43476","SEMIMAJOR_AXIS":"6867.355","PERIOD":"94.394","APOGEE":"499.740","PERIGEE":"478.700","DECAYED":"0"},{"COMMENT":"GENERATED VIA SPACETRACK.ORG API","ORIGINATOR":"18 SPCS","NORAD_CAT_ID":"43476","OBJECT_NAME":"GRACE-FO 1","OBJECT_TYPE":"PAYLOAD","CLASSIFICATION_TYPE":"U","INTLDES":"18047A","EPOCH":"2023-03-21 11:13:27","EPOCH_MICROSECONDS":"470784","MEAN_MOTION":"15.2552436","ECCENTRICITY":"0.0015272","INCLINATION":"88.9968","RA_OF_ASC_NODE":"1.0346","ARG_OF_PERICENTER":"25.2253","MEAN_ANOMALY":"334.9738","EPHEMERIS_TYPE":"0","ELEMENT_SET_NO":"999","REV_AT_EPOCH":"26862","BSTAR":"0.00018684","MEAN_MOTION_DOT":"0.00004776","MEAN_MOTION_DDOT":"0","FILE":"3866730","TLE_LINE0":"0 GRACE-FO 1","TLE_LINE1":"1 43476U 18047A   23080.46767906  .00004776  00000-0  18684-3 0  9996","TLE_LINE2":"2 43476  88.9968   1.0346 0015272  25.2253 334.9738 15.25524360268628","OBJECT_ID":"2018-047A","OBJECT_NUMBER":"43476","SEMIMAJOR_AXIS":"6867.348","PERIOD":"94.394","APOGEE":"499.701","PERIGEE":"478.726","DECAYED":"0"},{"COMMENT":"GENERATED VIA SPACETRACK.ORG API","ORIGINATOR":"18 SPCS","NORAD_CAT_ID":"43476","OBJECT_NAME":"GRACE-FO 1","OBJECT_TYPE":"PAYLOAD","CLASSIFICATION_TYPE":"U","INTLDES":"18047A","EPOCH":"2023-03-21 20:40:12","EPOCH_MICROSECONDS":"878688","MEAN_MOTION":"15.25528654","ECCENTRICITY":"0.0015185","INCLINATION":"88.9968","RA_OF_ASC_NODE":"0.9817","ARG_OF_PERICENTER":"23.8552","MEAN_ANOMALY":"336.3397","EPHEMERIS_TYPE":"0","ELEMENT_SET_NO":"999","REV_AT_EPOCH":"26868","BSTAR":"0.00019796","MEAN_MOTION_DOT":"0.00005059","MEAN_MOTION_DDOT":"0","FILE":"3866953","TLE_LINE0":"0 GRACE-FO 1","TLE_LINE1":"1 43476U 18047A   23080.86126017  .00005059  00000-0  19796-3 0  9992","TLE_LINE2":"2 43476  88.9968   0.9817 0015185  23.8552 336.3397 15.25528654268681","OBJECT_ID":"2018-047A","OBJECT_NUMBER":"43476","SEMIMAJOR_AXIS":"6867.335","PERIOD":"94.394","APOGEE":"499.628","PERIGEE":"478.772","DECAYED":"0"},{"COMMENT":"GENERATED VIA SPACETRACK.ORG API","ORIGINATOR":"18 SPCS","NORAD_CAT_ID":"43476","OBJECT_NAME":"GRACE-FO 1","OBJECT_TYPE":"PAYLOAD","CLASSIFICATION_TYPE":"U","INTLDES":"18047A","EPOCH":"2023-03-22 12:24:48","EPOCH_MICROSECONDS":"338496","MEAN_MOTION":"15.25535791","ECCENTRICITY":"0.0015068","INCLINATION":"88.9967","RA_OF_ASC_NODE":"0.8935","ARG_OF_PERICENTER":"21.5235","MEAN_ANOMALY":"338.6644","EPHEMERIS_TYPE":"0","ELEMENT_SET_NO":"999","REV_AT_EPOCH":"26878","BSTAR":"0.00020537","MEAN_MOTION_DOT":"0.00005248","MEAN_MOTION_DDOT":"0","FILE":"3867379","TLE_LINE0":"0 GRACE-FO 1","TLE_LINE1":"1 43476U 18047A   23081.51722614  .00005248  00000-0  20537-3 0  9995","TLE_LINE2":"2 43476  88.9967   0.8935 0015068  21.5235 338.6644 15.25535791268784","OBJECT_ID":"2018-047A","OBJECT_NUMBER":"43476","SEMIMAJOR_AXIS":"6867.314","PERIOD":"94.393","APOGEE":"499.527","PERIGEE":"478.831","DECAYED":"0"},{"COMMENT":"GENERATED VIA SPACETRACK.ORG API","ORIGINATOR":"18 SPCS","NORAD_CAT_ID":"43476","OBJECT_NAME":"GRACE-FO 1","OBJECT_TYPE":"PAYLOAD","CLASSIFICATION_TYPE":"U","INTLDES":"18047A","EPOCH":"2023-03-22 20:17:05","EPOCH_MICROSECONDS":"970336","MEAN_MOTION":"15.25539392","ECCENTRICITY":"0.0014964","INCLINATION":"88.9967","RA_OF_ASC_NODE":"0.8494","ARG_OF_PERICENTER":"20.4311","MEAN_ANOMALY":"339.7533","EPHEMERIS_TYPE":"0","ELEMENT_SET_NO":"999","REV_AT_EPOCH":"26883","BSTAR":"0.00020796","MEAN_MOTION_DOT":"0.00005314","MEAN_MOTION_DDOT":"0","FILE":"3868201","TLE_LINE0":"0 GRACE-FO 1","TLE_LINE1":"1 43476U 18047A   23081.84520799  .00005314  00000-0  20796-3 0  9992","TLE_LINE2":"2 43476  88.9967   0.8494 0014964  20.4311 339.7533 15.25539392268837","OBJECT_ID":"2018-047A","OBJECT_NUMBER":"43476","SEMIMAJOR_AXIS":"6867.303","PERIOD":"94.393","APOGEE":"499.444","PERIGEE":"478.892","DECAYED":"0"},{"COMMENT":"GENERATED VIA SPACETRACK.ORG API","ORIGINATOR":"18 SPCS","NORAD_CAT_ID":"43476","OBJECT_NAME":"GRACE-FO 1","OBJECT_TYPE":"PAYLOAD","CLASSIFICATION_TYPE":"U","INTLDES":"18047A","EPOCH":"2023-03-23 13:36:08","EPOCH_MICROSECONDS":"544384","MEAN_MOTION":"15.25547363","ECCENTRICITY":"0.0014829","INCLINATION":"88.9966","RA_OF_ASC_NODE":"0.7524","ARG_OF_PERICENTER":"17.8679","MEAN_ANOMALY":"342.3087","EPHEMERIS_TYPE":"0","ELEMENT_SET_NO":"999","REV_AT_EPOCH":"26894","BSTAR":"0.00021627","MEAN_MOTION_DOT":"0.00005527","MEAN_MOTION_DDOT":"0","FILE":"3868494","TLE_LINE0":"0 GRACE-FO 1","TLE_LINE1":"1 43476U 18047A   23082.56676556  .00005527  00000-0  21627-3 0  9995","TLE_LINE2":"2 43476  88.9966   0.7524 0014829  17.8679 342.3087 15.25547363268949","OBJECT_ID":"2018-047A","OBJECT_NUMBER":"43476","SEMIMAJOR_AXIS":"6867.279","PERIOD":"94.392","APOGEE":"499.328","PERIGEE":"478.961","DECAYED":"0"},{"COMMENT":"GENERATED VIA SPACETRACK.ORG API","ORIGINATOR":"18 SPCS","NORAD_CAT_ID":"43476","OBJECT_NAME":"GRACE-FO 1","OBJECT_TYPE":"PAYLOAD","CLASSIFICATION_TYPE":"U","INTLDES":"18047A","EPOCH":"2023-03-23 19:53:58","EPOCH_MICROSECONDS":"432992","MEAN_MOTION":"15.25552806","ECCENTRICITY":"0.001478","INCLINATION":"88.9965","RA_OF_ASC_NODE":"0.7171","ARG_OF_PERICENTER":"16.9094","MEAN_ANOMALY":"343.2643","EPHEMERIS_TYPE":"0","ELEMENT_SET_NO":"999","REV_AT_EPOCH":"26898","BSTAR":"0.00025336","MEAN_MOTION_DOT":"0.00006471","MEAN_MOTION_DDOT":"0","FILE":"3868557","TLE_LINE0":"0 GRACE-FO 1","TLE_LINE1":"1 43476U 18047A   23082.82914853  .00006471  00000-0  25336-3 0  9999","TLE_LINE2":"2 43476  88.9965   0.7171 0014780  16.9094 343.2643 15.25552806268983","OBJECT_ID":"2018-047A","OBJECT_NUMBER":"43476","SEMIMAJOR_AXIS":"6867.263","PERIOD":"94.392","APOGEE":"499.278","PERIGEE":"478.978","DECAYED":"0"},{"COMMENT":"GENERATED VIA SPACETRACK.ORG API","ORIGINATOR":"18 SPCS","NORAD_CAT_ID":"43476","OBJECT_NAME":"GRACE-FO 1","OBJECT_TYPE":"PAYLOAD","CLASSIFICATION_TYPE":"U","INTLDES":"18047A","EPOCH":"2023-03-23 21:28:25","EPOCH_MICROSECONDS":"906656","MEAN_MOTION":"15.25553407","ECCENTRICITY":"0.0014766","INCLINATION":"88.9965","RA_OF_ASC_NODE":"0.7083","ARG_OF_PERICENTER":"16.6747","MEAN_ANOMALY":"343.4984","EPHEMERIS_TYPE":"0","ELEMENT_SET_NO":"999","REV_AT_EPOCH":"26899","BSTAR":"0.00025","MEAN_MOTION_DOT":"0.00006385","MEAN_MOTION_DDOT":"0","FILE":"3868816","TLE_LINE0":"0 GRACE-FO 1","TLE_LINE1":"1 43476U 18047A   23082.89474429  .00006385  00000-0  25000-3 0  9998","TLE_LINE2":"2 43476  88.9965   0.7083 0014766  16.6747 343.4984 15.25553407268990","OBJECT_ID":"2018-047A","OBJECT_NUMBER":"43476","SEMIMAJOR_AXIS":"6867.261","PERIOD":"94.392","APOGEE":"499.266","PERIGEE":"478.986","DECAYED":"0"},{"COMMENT":"GENERATED VIA SPACETRACK.ORG API","ORIGINATOR":"18 SPCS","NORAD_CAT_ID":"43476","OBJECT_NAME":"GRACE-FO 1","OBJECT_TYPE":"PAYLOAD","CLASSIFICATION_TYPE":"U","INTLDES":"18047A","EPOCH":"2023-03-24 13:13:00","EPOCH_MICROSECONDS":"355584","MEAN_MOTION":"15.25564685","ECCENTRICITY":"0.0014637","INCLINATION":"88.9963","RA_OF_ASC_NODE":"0.62","ARG_OF_PERICENTER":"14.35","MEAN_ANOMALY":"345.8161","EPHEMERIS_TYPE":"0","ELEMENT_SET_NO":"999","REV_AT_EPOCH":"26909","BSTAR":"0.00030299","MEAN_MOTION_DOT":"0.00007735","MEAN_MOTION_DDOT":"0","FILE":"3869846","TLE_LINE0":"0 GRACE-FO 1","TLE_LINE1":"1 43476U 18047A   23083.55069856  .00007735  00000-0  30299-3 0  9992","TLE_LINE2":"2 43476  88.9963   0.6200 0014637  14.3500 345.8161 15.25564685269092","OBJECT_ID":"2018-047A","OBJECT_NUMBER":"43476","SEMIMAJOR_AXIS":"6867.227","PERIOD":"94.391","APOGEE":"499.144","PERIGEE":"479.041","DECAYED":"0"}]